{"fetched_at":"2026-03-30T13:17:50Z","count":15418,"tles":[{"name":"STARLINK-1215","line1":"1 45225U 20012AZ  26087.79292420  .00003989  00000+0  14670-3 0  9990","line2":"2 45225  53.1585 269.5717 0001184  94.5926 265.5210 15.30206205338406","category":"Starlink"}]}